     2.100          NAVIGATION                              RINEX VERSION / TYPE
fic2rin                                 11/08/2014 00:21:59 PGM / RUN BY / DATE
                                                            END OF HEADER
 2 14 11  7 13 59 44.0  .528710894287D-03  .216004991671D-11  .000000000000D+00
     .400000000000D+01 -.109375000000D+01  .552273004387D-08  .231265510769D+01
    -.284984707832D-06  .138958781026D-01  .424496829510D-05  .515369694138D+04
     .482384000000D+06 -.163912773132D-06  .167109200513D+01 -.273808836937D-06
     .939485409727D+00  .287843750000D+03 -.237205974167D+01 -.842285084555D-08
    -.392873507616D-11  .100000000000D+01  .181700000000D+04  .000000000000D+00
     .240000000000D+01  .000000000000D+00 -.204890966415D-07  .400000000000D+01
     .479826000000D+06  .400000000000D+01
 2 14 11  7 15 59 44.0  .528726726770D-03  .216004991671D-11  .000000000000D+00
     .500000000000D+01  .237500000000D+01  .556451749877D-08 -.292037046984D+01
     .108033418655D-06  .138952811249D-01  .391341745853D-05  .515369811630D+04
     .489584000000D+06  .353902578354D-07  .167103148860D+01 -.307336449623D-06
     .939485557482D+00  .290562500000D+03 -.237204578105D+01 -.840463580110D-08
     .403588239642D-10  .100000000000D+01  .181700000000D+04  .000000000000D+00
     .240000000000D+01  .000000000000D+00 -.204890966415D-07  .500000000000D+01
     .482406000000D+06  .400000000000D+01
 4 14 11  7 15 59 44.0 -.264588743448D-05 -.568434188608D-12  .000000000000D+00
     .370000000000D+02  .671875000000D+01  .558094675455D-08  .230739671156D+01
     .149011611938D-06  .112497813534D-01  .426732003689D-05  .515198466301D+04
     .489584000000D+06  .558793544769D-08  .168660872223D+01 -.214204192162D-06
     .938503295766D+00  .284250000000D+03  .109331049821D+01 -.842820821156D-08
     .728601777760D-10  .100000000000D+01  .181700000000D+04  .000000000000D+00
     .240000000000D+01  .000000000000D+00 -.651925802231D-08  .370000000000D+02
     .482406000000D+06  .400000000000D+01
22 14 11  7 15 59 44.0  .284640118480D-03  .386535248253D-11  .000000000000D+00
     .900000000000D+01 -.172500000000D+02  .541308261948D-08 -.390883287298D+00
    -.949949026108D-06  .730943598319D-02  .104475766420D-04  .515372125244D+04
     .489584000000D+06 -.447034835815D-07  .273321604937D+01  .260770320892D-07
     .923473673334D+00  .156906250000D+03 -.206045532493D+01 -.851785480284D-08
    -.758245869698D-09  .100000000000D+01  .181700000000D+04  .000000000000D+00
     .240000000000D+01  .000000000000D+00 -.176951289177D-07  .900000000000D+01
     .482406000000D+06  .400000000000D+01
24 14 11  7 15 59 44.0 -.380668789148D-04 -.568434188608D-12  .000000000000D+00
     .210000000000D+02  .709375000000D+01  .494020577940D-08  .303939324777D+01
     .460073351860D-06  .245665095281D-02  .143423676491D-06  .515369843483D+04
     .489584000000D+06  .372529029846D-08 -.145600142453D+01 -.745058059692D-07
     .955102788756D+00  .374343750000D+03  .206652074128D+00 -.864607442942D-08
     .807176479283D-10  .100000000000D+01  .181700000000D+04  .000000000000D+00
     .240000000000D+01  .000000000000D+00  .279396772385D-08  .210000000000D+02
     .482406000000D+06  .400000000000D+01
 1 14 11  7 16  0  0.0 -.123796053231D-04  .454747350886D-12  .000000000000D+00
     .920000000000D+02  .746875000000D+01  .511521306916D-08  .264050657119D+01
     .400468707085D-06  .364184763748D-02  .452809035778D-05  .515366172600D+04
     .489600000000D+06 -.800937414169D-07  .170423668466D+01 -.447034835815D-07
     .960912413882D+00  .292031250000D+03  .445654369648D+00 -.824498629392D-08
     .746459664470D-10  .100000000000D+01  .181700000000D+04  .000000000000D+00
     .240000000000D+01  .000000000000D+00  .558793544769D-08  .920000000000D+02
     .482406000000D+06  .400000000000D+01
 5 14 11  7 16  0  0.0 -.320717226714D-03  .432009983342D-11  .000000000000D+00
     .440000000000D+02 -.163437500000D+02  .475341228442D-08 -.586303983423D+00
    -.910833477974D-06  .395605922677D-02  .103637576103D-04  .515371590805D+04
     .489600000000D+06  .726431608200D-07  .274044682773D+01  .726431608200D-07
     .947130163179D+00  .172750000000D+03  .386630859470D+00 -.807069331963D-08
    -.669670751618D-09  .100000000000D+01  .181700000000D+04  .000000000000D+00
     .240000000000D+01  .000000000000D+00 -.107102096081D-07  .440000000000D+02
     .482406000000D+06  .400000000000D+01
 6 14 11  7 16  0  0.0  .743800774217D-05  .466116034659D-11  .000000000000D+00
     .620000000000D+02  .268750000000D+01  .515057168484D-08 -.604746857060D+00
     .312924385071D-06  .587502960116D-03  .443309545517D-05  .515362353134D+04
     .489600000000D+06  .838190317154D-07  .169568173284D+01 -.558793544769D-08
     .960824172126D+00  .293500000000D+03  .218007350029D+01 -.838677791439D-08
     .171435712414D-10  .100000000000D+01  .181700000000D+04  .000000000000D+00
     .240000000000D+01  .000000000000D+00  .465661287308D-08  .620000000000D+02
     .482406000000D+06  .400000000000D+01
 7 14 11  7 16  0  0.0  .410305336118D-03  .386535248253D-11  .000000000000D+00
     .360000000000D+02  .756250000000D+01  .461054919074D-08  .212684521427D+01
     .340864062309D-06  .801154784858D-02  .651925802231D-06  .515360463142D+04
     .489600000000D+06 -.156462192535D-06 -.141853991952D+01  .689178705215D-07
     .971812035712D+00  .374062500000D+03 -.275736457855D+01 -.842856536929D-08
    -.571452374714D-11  .100000000000D+01  .181700000000D+04  .000000000000D+00
     .240000000000D+01  .000000000000D+00 -.111758708954D-07  .360000000000D+02
     .482406000000D+06  .400000000000D+01
 8 14 11  7 16  0  0.0  .162371434271D-04  .113686837722D-12  .000000000000D+00
     .350000000000D+02 -.194375000000D+02  .395123601341D-08  .273343727185D+01
    -.108033418655D-05  .147438365966D-01  .786036252975D-06  .515218119240D+04
     .489600000000D+06 -.165775418282D-06 -.131541904208D+01 -.108033418655D-06
     .995289105969D+00  .383781250000D+03 -.269065188756D+01 -.800140471919D-08
    -.310727228751D-10  .100000000000D+01  .181700000000D+04  .000000000000D+00
     .240000000000D+01  .630000000000D+02 -.465661287308D-08  .350000000000D+02
     .482406000000D+06  .400000000000D+01
 9 14 11  7 16  0  0.0 -.172154977918D-05 -.682121026330D-11  .000000000000D+00
     .360000000000D+02  .121406250000D+03  .438803992233D-08 -.288734495083D+01
     .624544918537D-05  .274167279713D-03  .921450555325D-05  .515371988297D+04
     .489600000000D+06  .931322574615D-08 -.249382118857D+01 -.186264514923D-08
     .959450326740D+00  .199968750000D+03 -.295350735348D+01 -.800533345427D-08
     .172150027883D-09  .100000000000D+01  .181700000000D+04  .000000000000D+00
     .240000000000D+01  .000000000000D+00  .465661287308D-09  .360000000000D+02
     .482406000000D+06  .400000000000D+01
10 14 11  7 16  0  0.0 -.148841645569D-03 -.159161572810D-11  .000000000000D+00
     .114000000000D+03 -.121562500000D+02  .501056585304D-08 -.309856994742D+00
    -.547617673874D-06  .142530257581D-01  .101923942566D-04  .515363390732D+04
     .489600000000D+06 -.465661287308D-07  .275673897041D+01  .201165676117D-06
     .941935901377D+00  .172312500000D+03  .897989510193D+00 -.841606484860D-08
    -.655027284516D-09  .100000000000D+01  .181700000000D+04  .000000000000D+00
     .240000000000D+01  .000000000000D+00 -.325962901115D-08  .114000000000D+03
     .482406000000D+06  .400000000000D+01
11 14 11  7 16  0  0.0 -.534617342055D-03 -.295585778076D-11  .000000000000D+00
     .130000000000D+02  .345000000000D+02  .655598736890D-08  .222558578874D+01
     .155344605446D-05  .156363060232D-01  .471994280815D-05  .515370602608D+04
     .489600000000D+06  .137835741043D-06  .136800857272D+01 -.251457095146D-06
     .891183972864D+00  .247843750000D+03  .135656166884D+01 -.880822404074D-08
     .388587614805D-09  .100000000000D+01  .181700000000D+04  .000000000000D+00
     .240000000000D+01  .000000000000D+00 -.121071934700D-07  .130000000000D+02
     .482406000000D+06  .400000000000D+01
12 14 11  7 16  0  0.0  .244519673288D-03  .272848410532D-11  .000000000000D+00
     .360000000000D+02 -.126593750000D+03  .368479634370D-08  .172863353394D+01
    -.667013227940D-05  .498058018275D-02  .939704477787D-05  .515379153252D+04
     .489600000000D+06 -.651925802231D-07 -.352961434146D+00  .106170773506D-06
     .988971390377D+00  .210906250000D+03  .501468797857D+00 -.771782147824D-08
    -.240009997380D-09  .100000000000D+01  .181700000000D+04  .000000000000D+00
     .240000000000D+01  .000000000000D+00 -.121071934700D-07  .360000000000D+02
     .482406000000D+06  .400000000000D+01
13 14 11  7 16  0  0.0 -.583603978157D-04 -.352429196937D-11  .000000000000D+00
     .102000000000D+03  .128093750000D+03  .395195032888D-08 -.255825988897D+01
     .661239027977D-05  .588451325893D-02  .798329710960D-05  .515591493034D+04
     .489600000000D+06  .931322574615D-08 -.238196477963D+01  .838190317154D-07
     .976203161340D+00  .234500000000D+03  .222524980766D+01 -.777889545079D-08
     .205365697163D-09  .100000000000D+01  .181700000000D+04  .000000000000D+00
     .240000000000D+01  .000000000000D+00 -.111758708954D-07  .102000000000D+03
     .482406000000D+06  .400000000000D+01
14 14 11  7 16  0  0.0  .117952935398D-03 -.363797880709D-11  .000000000000D+00
     .520000000000D+02  .150062500000D+03  .416981654674D-08 -.152418684247D+01
     .776536762714D-05  .786002248060D-02  .864453613758D-05  .515375173378D+04
     .489600000000D+06  .230967998505D-06 -.241510024570D+01  .115483999252D-06
     .968750124765D+00  .219437500000D+03 -.196882361507D+01 -.796390315710D-08
     .230723896291D-09  .100000000000D+01  .181700000000D+04  .000000000000D+00
     .240000000000D+01  .000000000000D+00 -.931322574615D-08  .520000000000D+02
     .482406000000D+06  .400000000000D+01
